     3.03           N: GNSS NAV DATA    M: Mixed            RINEX VERSION / TYPE
sbp2rinex v2.2 (RTKL                    20210504 171526 UTC PGM / RUN BY / DATE 
log: 2020-07-08-US-MTV-1.sbp                                COMMENT             
format: Swift Navigation SBP, option: CONVBASE,EPHALL,OBSALLCOMMENT             
                                                            END OF HEADER       
G14 2020  7  9  0  0  0 -.749714672565E-07  .284217094304E-11  .000000000000E+00
      .700000000000E+01  .107187500000E+02  .468805241906E-08  .959803909651E+00
      .590458512306E-06  .115512679331E-01  .944174826145E-05  .515366502190E+04
      .345600000000E+06 -.206753611565E-06 -.179379705905E+01  .260770320892E-07
      .960131066410E+00  .202375000000E+03 -.191033128753E+01 -.816926885427E-08
      .260010830495E-09  .200000000000E+01  .211300000000E+04  .100000000000E+01
      .200000000000E+01  .000000000000E+00 -.977888703346E-08  .700000000000E+01
      .340300000000E+06  .400000000000E+01
E 9 2020  7  8 22 20  0  .600292999297E-02 -.122923893286E-10  .000000000000E+00
      .540000000000E+02 -.485625000000E+02  .318691846223E-08  .152044365788E+01
     -.203587114811E-05  .446942984127E-03  .107344239950E-04  .544062731552E+04
      .339600000000E+06  .106170773506E-06 -.213799640827E+01 -.223517417908E-07
      .959711150404E+00  .107375000000E+03 -.687907152106E+00 -.546094175586E-08
      .312513017422E-09  .500000000000E+01  .211300000000E+04  .100000000000E+01
      .312000000000E+01  .000000000000E+00 -.232830643654E-09 -.465661287308E-09
      .340300000000E+06  .000000000000E+00
E24 2020  7  8 22 20  0  .536107138032E-02 -.199094074560E-10  .000000000000E+00
      .540000000000E+02 -.659375000000E+01  .282690346616E-08 -.201346335189E+01
     -.359490513802E-06  .337534584105E-03  .870786607265E-05  .544060050583E+04
      .339600000000E+06  .689178705215E-07 -.325137405221E-01 -.782310962677E-07
      .980096510074E+00  .165625000000E+03  .762287431234E+00 -.536986653364E-08
     -.646812656629E-09  .500000000000E+01  .211300000000E+04  .100000000000E+01
      .312000000000E+01  .000000000000E+00  .458676367998E-07  .512227416039E-07
      .340300000000E+06  .000000000000E+00
E 4 2020  7  8 22 20  0 -.561901542824E-03 -.767386154621E-11  .000000000000E+00
      .540000000000E+02 -.580000000000E+02  .315834584350E-08  .295826159586E+01
     -.254996120930E-05  .308450777084E-03  .118594616652E-04  .544063334656E+04
      .339600000000E+06 -.558793544769E-08 -.213171640817E+01  .949949026108E-07
      .953738763939E+00  .821875000000E+02 -.132871341400E+01 -.546022744039E-08
      .408588447920E-09  .500000000000E+01  .211300000000E+04  .100000000000E+01
      .312000000000E+01  .000000000000E+00 -.512227416039E-08 -.582076609135E-08
      .340310000000E+06  .000000000000E+00
E26 2020  7  8 22 20  0  .298219209071E-02 -.435420588474E-10  .000000000000E+00
      .540000000000E+02  .468437500000E+02  .305191283871E-08  .297183889905E+01
      .231526792049E-05  .997545430437E-04 -.838190317154E-07  .544061364937E+04
      .339600000000E+06 -.186264514923E-08  .205008312896E+01 -.502914190292E-07
      .984753870700E+00  .351343750000E+03  .231505476879E+01 -.592274670617E-08
      .278225874939E-09  .500000000000E+01  .211300000000E+04  .100000000000E+01
      .312000000000E+01  .000000000000E+00  .395812094212E-08  .465661287308E-08
      .340320000000E+06  .000000000000E+00
E33 2020  7  8 22 20  0 -.465157150757E-03  .497379915032E-12  .000000000000E+00
      .540000000000E+02  .568437500000E+02  .297512392585E-08 -.194815748193E+01
      .243447721004E-05  .115115894005E-03  .217929482460E-06  .544060284042E+04
      .339600000000E+06  .745058059692E-08  .204365934449E+01 -.409781932831E-07
      .991551163023E+00  .345875000000E+03  .188443415139E+00 -.586595862644E-08
      .286797660559E-09  .500000000000E+01  .211300000000E+04  .100000000000E+01
      .312000000000E+01  .000000000000E+00 -.512227416039E-08 -.605359673500E-08
      .340349000000E+06  .000000000000E+00
E27 2020  7  8 22 20  0  .181613781024E-03 -.815703060653E-11  .000000000000E+00
      .540000000000E+02  .140625000000E+01  .279118769274E-08 -.271457817315E+01
     -.372529029846E-07  .164750963449E-03  .899098813534E-05  .544060868263E+04
      .339600000000E+06  .614672899246E-07 -.377689621203E-01 -.130385160446E-07
      .982099361958E+00  .160437500000E+03 -.169022886370E+01 -.530307803734E-08
     -.621097299767E-09  .500000000000E+01  .211300000000E+04  .100000000000E+01
      .312000000000E+01  .000000000000E+00  .000000000000E+00 -.232830643654E-09
      .340600000000E+06  .000000000000E+00
E14 2020  7  8 22 20  0 -.107743556146E-02 -.133582034323E-10  .000000000000E+00
      .540000000000E+02  .120718750000E+03  .424767693279E-08  .142424755146E+01
      .503286719322E-05  .166771207121E+00  .309385359287E-05  .528937589264E+04
      .339600000000E+06  .223703682423E-05  .132927082382E+01 -.465661287308E-06
      .883034179129E+00  .211312500000E+03  .176142307695E+01 -.561380526609E-08
     -.373586989969E-09  .500000000000E+01  .211300000000E+04  .100000000000E+01
      .312000000000E+01  .000000000000E+00 -.512227416039E-08 -.582076609135E-08
      .340649000000E+06  .000000000000E+00
E12 2020  7  8 22 20  0  .571598933311E-02 -.187725390788E-10  .000000000000E+00
      .540000000000E+02  .561250000000E+02  .300333938685E-08 -.294223595443E+01
      .241026282310E-05  .339867314324E-03  .976026058197E-06  .544060792160E+04
      .339600000000E+06 -.223517417908E-07  .204778512457E+01 -.782310962677E-07
      .988372770150E+00  .334750000000E+03  .404107420125E+00 -.586595862644E-08
      .275011455331E-09  .500000000000E+01  .211300000000E+04  .100000000000E+01
      .312000000000E+01  .000000000000E+00 -.125728547573E-07 -.125728547573E-07
      .340740000000E+06  .000000000000E+00
C 6 2020  7  8 22  0  0  .775381806307E-03  .112301279387E-10  .000000000000E+00
      .100000000000E+01  .113687500000E+03  .133326982175E-08 -.745557674167E+00
      .333366915584E-05  .964171939995E-02  .180862843990E-04  .649383223915E+04
      .338400000000E+06  .260770320892E-07 -.175694260213E+01  .968575477600E-07
      .944502430226E+00 -.324906250000E+03 -.219528070781E+01 -.195222417512E-08
      .916823903681E-09  .120000000000E+02  .757000000000E+03  .100000000000E+01
      .200000000000E+01  .000000000000E+00  .869999983166E-08 -.180000003791E-08
      .340805000000E+06  .000000000000E+00
C 7 2020  7  8 22  0  0 -.185354147106E-04 -.315285575425E-10  .000000000000E+00
      .100000000000E+01  .109343750000E+03  .106361573244E-08 -.233463410448E+01
      .324891880155E-05  .770343129989E-02  .208839774132E-04  .649390360069E+04
      .338400000000E+06  .945292413235E-07  .255495532380E+00 -.665895640850E-07
      .898547888469E+00 -.417203125000E+03 -.262752806231E+01 -.178257425137E-08
     -.872893502375E-09  .120000000000E+02  .757000000000E+03  .100000000000E+01
      .200000000000E+01  .000000000000E+00  .148000003364E-07  .800000010681E-09
      .340805000000E+06  .000000000000E+00
C 8 2020  7  8 22  0  0 -.362075865269E-03 -.246167530804E-10  .809085871217E-17
      .600000000000E+01 -.237031250000E+03  .131326898864E-08  .193430184540E+01
     -.728340819478E-05  .457658944651E-02 -.970764085650E-05  .649386215019E+04
      .338400000000E+06 -.172294676304E-06  .240818688107E+01  .176951289177E-07
      .103498499745E+01  .553093750000E+03 -.276327091573E+01 -.264475302172E-08
     -.325013538118E-10  .120000000000E+02  .757000000000E+03  .100000000000E+01
      .200000000000E+01  .000000000000E+00  .113000000468E-07 -.800000010681E-09
      .340805000000E+06  .500000000000E+01
C10 2020  7  8 22  0  0 -.241752481088E-03  .100737196362E-10  .000000000000E+00
      .100000000000E+01  .114375000000E+03  .981112295837E-09 -.276669995767E+01
      .354833900928E-05  .689119845629E-02  .220476649702E-04  .649304406357E+04
      .338400000000E+06  .731088221073E-07  .248360030952E+00 -.451691448689E-07
      .900166951110E+00 -.457625000000E+03 -.257804898517E+01 -.179043172152E-08
     -.912538010871E-09  .120000000000E+02  .757000000000E+03  .100000000000E+01
      .200000000000E+01  .000000000000E+00  .650000009372E-08  .280000000963E-08
      .340805000000E+06  .000000000000E+00
C13 2020  7  8 22  0  0  .532653066330E-03  .205826466981E-10  .871427496135E-17
      .500000000000E+01 -.190578125000E+03  .154399288493E-08  .146796053699E+01
     -.620819628239E-05  .371400185395E-02 -.111563131213E-04  .649378237915E+04
      .338400000000E+06 -.726431608200E-07  .238912215022E+01  .135041773319E-07
      .996047836728E+00  .580390625000E+03 -.269785117953E+01 -.280690263305E-08
     -.714315468392E-11  .120000000000E+02  .757000000000E+03  .100000000000E+01
      .200000000000E+01  .000000000000E+00 -.929999988131E-08  .249999998481E-08
      .340805000000E+06  .400000000000E+01
C14 2020  7  8 22  0  0  .640873215161E-03  .538458166943E-10  .000000000000E+00
      .200000000000E+01 -.959687500000E+02  .368908223651E-08 -.128480429211E+01
     -.466918572783E-05  .148907082621E-02  .113188289106E-04  .528262975502E+04
      .338400000000E+06  .628642737865E-07 -.258077616876E+01 -.428408384323E-07
      .961350133600E+00  .129609375000E+03 -.643968760158E+00 -.671492256062E-08
      .489306095849E-10  .120000000000E+02  .757000000000E+03  .100000000000E+01
      .200000000000E+01  .000000000000E+00  .700000013509E-08  .150000001309E-08
      .340805000000E+06  .100000000000E+01
